STARLINK-4693           
1 53605U 22104T   24090.75959410  .00003887  00000+0  26213-3 0  9995
2 53605  53.2171 186.4106 0001522  93.5750 266.5416 15.08849606 88592
STARLINK-4590           
1 53606U 22104U   24090.92246670  .00003250  00000+0  22204-3 0  9992
2 53606  53.2173 176.0123 0001555 106.6252 253.4911 15.08861370 88067
STARLINK-4591           
1 53607U 22104V   24090.98272661  .00002183  00000+0  15521-3 0  9996
2 53607  53.2151 180.6825 0001370  96.2225 263.8923 15.08844741 88008
STARLINK-4647           
1 53608U 22104W   24090.92984195  .00000362  00000+0  40829-4 0  9990
2 53608  53.2172 176.0609 0001192  87.1917 272.9211 15.08850893 88635
STARLINK-4660           
1 53609U 22104X   24091.21452704  .00001467  00000+0  11027-3 0  9994
2 53609  53.2165 179.2932 0002043  92.1285 267.9941 15.08842631 88042
STARLINK-4610           
1 53610U 22104Y   24091.18839235  .00006108  00000+0  40147-3 0  9992
2 53610  53.2150 174.8313 0001365  80.1436 279.9710 15.08845671 88104
STARLINK-4650           
1 53611U 22104Z   24091.20408229 -.00001402  00000+0 -63305-4 0  9997
2 53611  53.2207 172.1685 0002519 216.0968 143.9856 15.12165747 88142
STARLINK-4658           
1 53612U 22104AA  24090.52135817  .00006593  00000+0  43204-3 0  9991
2 53612  53.2154 177.7752 0001342  80.8600 279.2544 15.08830763 88579
STARLINK-4655           
1 53613U 22104AB  24091.19110139  .00004560  00000+0  30427-3 0  9991
2 53613  53.2177 174.8451 0001218  83.3064 276.8066 15.08858700 88105
STARLINK-4605           
1 53616U 22104AE  24091.18097040  .00004075  00000+0  27395-3 0  9999
2 53616  53.2149 164.6142 0001412  85.0140 275.1013 15.08843669 88248
STARLINK-4601           
1 53617U 22104AF  24090.51766391  .00000233  00000+0  32743-4 0  9994
2 53617  53.2164 177.7512 0001592  95.6534 264.4640 15.08843756 88575
STARLINK-4604           
1 53618U 22104AG  24091.23525309  .00007583  00000+0  49402-3 0  9991
2 53618  53.2150 174.4106 0001707  83.3933 276.7254 15.08841006 88101
STARLINK-4609           
1 53619U 22104AH  24090.51397761  .00022473  00000+0  14257-2 0  9995
2 53619  53.2148 177.7289 0001505 104.6698 255.4461 15.08836664 88577
STARLINK-4615           
1 53620U 22104AJ  24090.49924085  .00000085  00000+0  23405-4 0  9991
2 53620  53.2140 177.6344 0001184  89.4684 270.6444 15.08840686 88681
STARLINK-4608           
1 53621U 22104AK  24090.51029339  .00005217  00000+0  34558-3 0  9995
2 53621  53.2156 177.7044 0001805  99.8549 260.2647 15.08843284 88577
STARLINK-4568           
1 53622U 22104AL  24090.94081398  .00001411  00000+0  10674-3 0  9991
2 53622  53.2178 175.4269 0001593 102.4577 257.6593 15.08846225 88075
STARLINK-4573           
1 53623U 22104AM  24090.50293787  .00003230  00000+0  22089-3 0  9995
2 53623  53.2153 177.6599 0001259  66.8449 293.2676 15.08844100 88684
STARLINK-4596           
1 53624U 22104AN  24090.62435121  .00008298  00000+0  53879-3 0  9999
2 53624  53.2152 176.9973 0001448  88.5632 271.5526 15.08841157 88702
STARLINK-4603           
1 53625U 22104AP  24090.56179843  .00012476  00000+0  80098-3 0  9995
2 53625  53.2151 177.3155 0001342  82.0024 278.1120 15.08821129 88010
STARLINK-4554           
1 53626U 22104AQ  24091.20946174  .00003393  00000+0  23118-3 0  9995
2 53626  53.2167 174.2577 0001601  90.7513 269.3662 15.08839028 88110
STARLINK-4595           
1 53627U 22104AR  24090.95187439  .00008863  00000+0  57419-3 0  9996
2 53627  53.2152 175.4850 0001351  95.3995 264.7152 15.08843205 88765
STARLINK-4600           
1 53628U 22104AS  24090.93712497  .00002894  00000+0  19979-3 0  9990
2 53628  53.2153 175.3998 0001290  95.6061 264.5078 15.08845932 88762
STARLINK-4602           
1 53629U 22104AT  24091.21314574  .00008662  00000+0  56167-3 0  9996
2 53629  53.2156 174.2785 0001516  84.5523 275.5642 15.08838129 88117
STARLINK-4598           
1 53630U 22104AU  24090.91698918  .00002805  00000+0  19422-3 0  9997
2 53630  53.2164 166.0001 0001553  89.2240 270.8931 15.08847956 89069
STARLINK-4599           
1 53631U 22104AV  24090.93343909  .00003379  00000+0  23024-3 0  9997
2 53631  53.2163 175.3774 0001375  97.8841 262.2307 15.08846863 88767
STARLINK-4606           
1 53632U 22104AW  24090.90865776  .00000183  00000+0  29563-4 0  9991
2 53632  53.2177 165.9495 0001521  85.1088 275.0078 15.08842769 88201
STARLINK-4593           
1 53633U 22104AX  24090.91234073  .00004266  00000+0  28591-3 0  9998
2 53633  53.2152 165.9707 0001485  89.3303 270.7859 15.08845078 88896
STARLINK-4592           
1 53634U 22104AY  24091.16625028  .00000380  00000+0  41957-4 0  9996
2 53634  53.2175 164.7154 0001456 102.0409 258.0746 15.08829801 88242
STARLINK-4587           
1 53635U 22104AZ  24090.90497631  .00000048  00000+0  21089-4 0  9990
2 53635  53.2165 165.9276 0001607  85.6222 274.4954 15.08837323 89227
STARLINK-4586           
1 53636U 22104BA  24090.89391477  .00000572  00000+0  53982-4 0  9999
2 53636  53.2177 165.8527 0001424  98.5332 261.5822 15.08851295 89226
STARLINK-4396           
1 53637U 22104BB  24091.19300140  .00002491  00000+0  17454-3 0  9996
2 53637  53.2157 164.8718 0001549  94.8331 265.2838 15.08840139 88246
STARLINK-4594           
1 53638U 22104BC  24090.94174313  .00022463  00000+0  14248-2 0  9998
2 53638  53.2144 165.4436 0001797  75.6030 284.5161 15.08844466 89235
STARLINK-4422           
1 53639U 22104BD  24090.62527820  .00000377  00000+0  41780-4 0  9992
2 53639  53.2173 167.0202 0001188  96.0403 264.0725 15.08847517 89017
STARLINK-4597           
1 53640U 22104BE  24090.62159330 -.00000805  00000+0 -32451-4 0  9994
2 53640  53.2185 166.9945 0001714 102.6654 257.4530 15.08840506 89180
STARLINK-4588           
1 53641U 22104BF  24090.89760414  .00001637  00000+0  12090-3 0  9993
2 53641  53.2166 165.8747 0001672  85.7465 274.3718 15.08840700 89229
STARLINK-4622           
1 53648U 22105A   24090.93030969  .00003131  00000+0  24816-3 0  9991
2 53648  97.6544 332.8804 0003139  77.1950 282.9625 15.01267449 86902
STARLINK-4386           
1 53649U 22105B   24090.59520139  .00000374  00000+0  33734-4 0  9993
2 53649  97.6551 332.5481 0002807  71.2626 288.8903 15.01259376 86842
STARLINK-4380           
1 53650U 22105C   24091.19322331  .00004054  00000+0  32010-3 0  9990
2 53650  97.6553 333.1367 0002962  88.6759 271.4805 15.01252576 87213
STARLINK-4388           
1 53651U 22105D   24091.19136670  .00001833  00000+0  14723-3 0  9993
2 53651  97.6561 333.1348 0003315  84.2819 275.8783 15.01273384 87217
STARLINK-4374           
1 53652U 22105E   24091.18947318  .00008147  00000+0  63728-3 0  9996
2 53652  97.6567 333.1314 0002831  87.7307 272.4242 15.01311720 87219
STARLINK-4390           
1 53653U 22105F   24090.94142477  .00003017  00000+0  23928-3 0  9992
2 53653  97.6531 332.8550 0004748  75.9725 284.2027 15.01275873 86894
STARLINK-4420           
1 53654U 22105G   24091.18395974  .00001855  00000+0  14894-3 0  9992
2 53654  97.6552 333.1260 0001498  89.8484 270.2912 15.01261813 87219
STARLINK-4470           
1 53655U 22105H   24091.18765804  .00002688  00000+0  21373-3 0  9991
2 53655  97.6558 333.1304 0003125  85.7040 274.4541 15.01269899 87213
STARLINK-4466           
1 53656U 22105J   24090.91179635  .00005889  00000+0  46266-3 0  9997
2 53656  97.6552 332.8611 0001050  90.7334 269.4010 15.01262179 86894
STARLINK-4469           
1 53657U 22105K   24090.91920329  .00008945  00000+0  69987-3 0  9993
2 53657  97.6553 332.8656 0002773  89.1619 270.9923 15.01270449 86895
STARLINK-4452           
1 53658U 22105L   24090.91364503  .00001122  00000+0  91897-4 0  9996
2 53658  97.6557 332.8583 0001111  97.9588 262.1763 15.01262339 86890
STARLINK-4463           
1 53659U 22105M   24090.91574479  .00000847  00000+0  70562-4 0  9991
2 53659  97.6555 332.8603 0001163  86.9074 273.2283 15.01258998 86893
STARLINK-4473           
1 53660U 22105N   24091.17469794 -.00000104  00000+0 -35303-5 0  9998
2 53660  97.6558 333.1141 0000555 132.6006 227.5265 15.01259390 87213
STARLINK-4472           
1 53661U 22105P   24090.91019765  .00012966  00000+0  10116-2 0  9998
2 53661  97.6562 332.8575 0000873 101.2932 258.8391 15.01284508 86898
STARLINK-4357           
1 53662U 22105Q   24091.17124029  .00002111  00000+0  16891-3 0  9996
2 53662  97.6569 333.1100 0000872 150.4765 209.6509 15.01264359 87217
STARLINK-4457           
1 53663U 22105R   24090.90994059  .00000023  00000+0  64030-5 0  9995
2 53663  97.6557 332.8532 0001095 119.2849 240.8485 15.01263892 86898
STARLINK-4471           
1 53664U 22105S   24091.16754202  .00001816  00000+0  14595-3 0  9999
2 53664  97.6567 333.1107 0001773  94.8459 265.2967 15.01261929 87212
STARLINK-4334           
1 53665U 22105T   24090.90253780  .00002352  00000+0  18759-3 0  9998
2 53665  97.6566 332.8549 0001344 105.4710 254.6663 15.01264590 86896
STARLINK-4449           
1 53666U 22105U   24090.56372140  .00000221  00000+0  21830-4 0  9991
2 53666  97.6561 332.5192 0001188  91.4434 268.6927 15.01261284 87128
STARLINK-4406           
1 53667U 22105V   24090.90623770  .00003717  00000+0  29372-3 0  9999
2 53667  97.6560 332.8499 0000770 110.2144 249.9163 15.01272158 86894
STARLINK-4458           
1 53668U 22105W   24090.56557739  .00000146  00000+0  15989-4 0  9996
2 53668  97.6560 332.4877 0001378  94.5466 265.5916 15.01262271 87129
STARLINK-4464           
1 53669U 22105X   24090.90439374  .00000856  00000+0  71262-4 0  9993
2 53669  97.6568 332.8381 0000736 112.0231 248.1072 15.01257137 86893
STARLINK-4459           
1 53670U 22105Y   24090.56187536 -.00000537  00000+0 -37222-4 0  9993
2 53670  97.6553 332.5144 0001727  78.5695 281.5724 15.01265289 86841
STARLINK-4440           
1 53671U 22105Z   24090.56211859  .00000655  00000+0  55617-4 0  9997
2 53671  97.6551 332.5176 0001967  90.0798 270.0651 15.01258847 86848
